{
  "type": "FeatureCollection",
  "features": [
    {
      "type": "Feature",
      "properties": {
        "norad_id": 57400,
        "name": "TIANMU-1 08",
        "group": "weather",
        "lat": 48.39740833519926,
        "lon": 42.02484001612521,
        "alt_km": 472.0748617084737,
        "timestamp": "2025-12-26T23:26:41.800403+00:00",
        "meta_object_name": "TIANMU-1 08",
        "meta_object_id": "2023-101B",
        "meta_epoch": "2025-12-26T13:48:11.722752",
        "meta_mean_motion": 15.28249667,
        "meta_eccentricity": 0.00068461,
        "meta_inclination": 97.2846,
        "meta_ra_of_asc_node": 49.9152,
        "meta_arg_of_pericenter": 44.3282,
        "meta_mean_anomaly": 315.8505,
        "meta_ephemeris_type": 0,
        "meta_classification_type": "U",
        "meta_norad_cat_id": 57400,
        "meta_element_set_no": 999,
        "meta_rev_at_epoch": 13526,
        "meta_bstar": 0.00027123306,
        "meta_mean_motion_dot": 7.398e-05,
        "meta_mean_motion_ddot": 0,
        "tle_line1": "1 57400U 23101B   25360.57513568  .00007398  00000+0  27123-3 0  9993",
        "tle_line2": "2 57400  97.2846  49.9152 0006846  44.3282 315.8505 15.28249667135265"
      },
      "geometry": {
        "type": "Point",
        "coordinates": [
          42.02484001612521,
          48.39740833519926
        ]
      }
    },
    {
      "type": "Feature",
      "properties": {
        "norad_id": 57401,
        "name": "TIANMU-1 09",
        "group": "weather",
        "lat": 55.85522267353672,
        "lon": -119.32041282389461,
        "alt_km": 474.8371453878144,
        "timestamp": "2025-12-26T23:26:41.800414+00:00",
        "meta_object_name": "TIANMU-1 09",
        "meta_object_id": "2023-101C",
        "meta_epoch": "2025-12-26T18:11:35.611584",
        "meta_mean_motion": 15.28289838,
        "meta_eccentricity": 0.0006104,
        "meta_inclination": 97.2803,
        "meta_ra_of_asc_node": 49.6001,
        "meta_arg_of_pericenter": 45.07,
        "meta_mean_anomaly": 315.1034,
        "meta_ephemeris_type": 0,
        "meta_classification_type": "U",
        "meta_norad_cat_id": 57401,
        "meta_element_set_no": 999,
        "meta_rev_at_epoch": 13529,
        "meta_bstar": 0.00030633,
        "meta_mean_motion_dot": 8.375e-05,
        "meta_mean_motion_ddot": 0,
        "tle_line1": "1 57401U 23101C   25360.75805106  .00008375  00000+0  30633-3 0  9992",
        "tle_line2": "2 57401  97.2803  49.6001 0006104  45.0700 315.1034 15.28289838135296"
      },
      "geometry": {
        "type": "Point",
        "coordinates": [
          -119.32041282389461,
          55.85522267353672
        ]
      }
    },
    {
      "type": "Feature",
      "properties": {
        "norad_id": 57402,
        "name": "TIANMU-1 10",
        "group": "weather",
        "lat": -64.33151511866512,
        "lon": 66.12345717972151,
        "alt_km": 489.71052098144446,
        "timestamp": "2025-12-26T23:26:41.800423+00:00",
        "meta_object_name": "TIANMU-1 10",
        "meta_object_id": "2023-101D",
        "meta_epoch": "2025-12-26T14:18:06.573024",
        "meta_mean_motion": 15.28278722,
        "meta_eccentricity": 0.00078333,
        "meta_inclination": 97.2883,
        "meta_ra_of_asc_node": 50.306,
        "meta_arg_of_pericenter": 42.6013,
        "meta_mean_anomaly": 317.5834,
        "meta_ephemeris_type": 0,
        "meta_classification_type": "U",
        "meta_norad_cat_id": 57402,
        "meta_element_set_no": 999,
        "meta_rev_at_epoch": 13526,
        "meta_bstar": 0.0002780445,
        "meta_mean_motion_dot": 7.594e-05,
        "meta_mean_motion_ddot": 0,
        "tle_line1": "1 57402U 23101D   25360.59590941  .00007594  00000+0  27804-3 0  9991",
        "tle_line2": "2 57402  97.2883  50.3060 0007833  42.6013 317.5834 15.28278722135260"
      },
      "geometry": {
        "type": "Point",
        "coordinates": [
          66.12345717972151,
          -64.33151511866512
        ]
      }
    },
    {
      "type": "Feature",
      "properties": {
        "norad_id": 57490,
        "name": "FENGYUN 3F",
        "group": "weather",
        "lat": 53.15456756371425,
        "lon": 57.23936139497807,
        "alt_km": 820.3888711456402,
        "timestamp": "2025-12-26T23:26:41.800432+00:00",
        "meta_object_name": "FENGYUN 3F",
        "meta_object_id": "2023-111A",
        "meta_epoch": "2025-12-26T14:44:06.614880",
        "meta_mean_motion": 14.19897205,
        "meta_eccentricity": 8.614e-05,
        "meta_inclination": 98.7065,
        "meta_ra_of_asc_node": 68.6824,
        "meta_arg_of_pericenter": 117.8701,
        "meta_mean_anomaly": 242.2563,
        "meta_ephemeris_type": 0,
        "meta_classification_type": "U",
        "meta_norad_cat_id": 57490,
        "meta_element_set_no": 999,
        "meta_rev_at_epoch": 12437,
        "meta_bstar": 5.6989476e-05,
        "meta_mean_motion_dot": 7.7e-07,
        "meta_mean_motion_ddot": 0,
        "tle_line1": "1 57490U 23111A   25360.61396545  .00000077  00000+0  56989-4 0  9992",
        "tle_line2": "2 57490  98.7065  68.6824 0000861 117.8701 242.2563 14.19897205124373"
      },
      "geometry": {
        "type": "Point",
        "coordinates": [
          57.23936139497807,
          53.15456756371425
        ]
      }
    },
    {
      "type": "Feature",
      "properties": {
        "norad_id": 58584,
        "name": "ARKTIKA-M 2",
        "group": "weather",
        "lat": 62.134129267187696,
        "lon": -113.87964929745313,
        "alt_km": 37870.45745838215,
        "timestamp": "2025-12-26T23:26:41.800444+00:00",
        "meta_object_name": "ARKTIKA-M 2",
        "meta_object_id": "2023-198A",
        "meta_epoch": "2025-12-25T18:56:09.299328",
        "meta_mean_motion": 2.00602256,
        "meta_eccentricity": 0.686608,
        "meta_inclination": 63.2255,
        "meta_ra_of_asc_node": 173.4714,
        "meta_arg_of_pericenter": 268.0516,
        "meta_mean_anomaly": 18.8422,
        "meta_ephemeris_type": 0,
        "meta_classification_type": "U",
        "meta_norad_cat_id": 58584,
        "meta_element_set_no": 999,
        "meta_rev_at_epoch": 1484,
        "meta_bstar": 0,
        "meta_mean_motion_dot": 2.31e-06,
        "meta_mean_motion_ddot": 0,
        "tle_line1": "1 58584U 23198A   25359.78899652  .00000231  00000+0  00000+0 0  9995",
        "tle_line2": "2 58584  63.2255 173.4714 6866080 268.0516  18.8422  2.00602256 14849"
      },
      "geometry": {
        "type": "Point",
        "coordinates": [
          -113.87964929745313,
          62.134129267187696
        ]
      }
    },
    {
      "type": "Feature",
      "properties": {
        "norad_id": 58645,
        "name": "TIANMU-1 11",
        "group": "weather",
        "lat": -63.80071881299498,
        "lon": 35.58041904154116,
        "alt_km": 495.0730341517201,
        "timestamp": "2025-12-26T23:26:41.800455+00:00",
        "meta_object_name": "TIANMU-1 11",
        "meta_object_id": "2023-205A",
        "meta_epoch": "2025-12-26T19:00:12.738240",
        "meta_mean_motion": 15.24769651,
        "meta_eccentricity": 0.000759,
        "meta_inclination": 97.3601,
        "meta_ra_of_asc_node": 20.1683,
        "meta_arg_of_pericenter": 250.0547,
        "meta_mean_anomaly": 109.9874,
        "meta_ephemeris_type": 0,
        "meta_classification_type": "U",
        "meta_norad_cat_id": 58645,
        "meta_element_set_no": 999,
        "meta_rev_at_epoch": 11123,
        "meta_bstar": 0.00027974,
        "meta_mean_motion_dot": 6.867e-05,
        "meta_mean_motion_ddot": 0,
        "tle_line1": "1 58645U 23205A   25360.79181410  .00006867  00000+0  27974-3 0  9995",
        "tle_line2": "2 58645  97.3601  20.1683 0007590 250.0547 109.9874 15.24769651111232"
      },
      "geometry": {
        "type": "Point",
        "coordinates": [
          35.58041904154116,
          -63.80071881299498
        ]
      }
    },
    {
      "type": "Feature",
      "properties": {
        "norad_id": 58646,
        "name": "TIANMU-1 12",
        "group": "weather",
        "lat": 38.06910980688474,
        "lon": -154.03960133285912,
        "alt_km": 488.7642951489888,
        "timestamp": "2025-12-26T23:26:41.800464+00:00",
        "meta_object_name": "TIANMU-1 12",
        "meta_object_id": "2023-205B",
        "meta_epoch": "2025-12-26T18:06:02.085120",
        "meta_mean_motion": 15.24656063,
        "meta_eccentricity": 0.0006099,
        "meta_inclination": 97.3588,
        "meta_ra_of_asc_node": 19.9321,
        "meta_arg_of_pericenter": 227.9967,
        "meta_mean_anomaly": 132.0751,
        "meta_ephemeris_type": 0,
        "meta_classification_type": "U",
        "meta_norad_cat_id": 58646,
        "meta_element_set_no": 999,
        "meta_rev_at_epoch": 11121,
        "meta_bstar": 0.00028647,
        "meta_mean_motion_dot": 7.009e-05,
        "meta_mean_motion_ddot": 0,
        "tle_line1": "1 58646U 23205B   25360.75419080  .00007009  00000+0  28647-3 0  9996",
        "tle_line2": "2 58646  97.3588  19.9321 0006099 227.9967 132.0751 15.24656063111215"
      },
      "geometry": {
        "type": "Point",
        "coordinates": [
          -154.03960133285912,
          38.06910980688474
        ]
      }
    }
  ]
}